[
    {
        "Altitude(m)": 558893.8222946813,
        "Argument of Periapsis(deg)": 0.006622991110713501,
        "Eccentricity": 0.0,
        "Inclination(deg)": 53.0,
        "Latitude(deg)": 48.736794769366824,
        "Longitude(deg)": -44.440830197959436,
        "Mean Anomaly(deg)": -249.90840713242244,
        "RAAN(deg)": 294.99014336852804,
        "Satellite Name": "Starlink Shell 1 1304",
        "Satellite Number": 1304,
        "Semi-Major Axis(m)": 6931778.249405717,
        "Time(s)": 190
    },
    {
        "Altitude(m)": 558833.501954354,
        "Argument of Periapsis(deg)": 0.0069715695902247375,
        "Eccentricity": 0.0,
        "Inclination(deg)": 53.0,
        "Latitude(deg)": 48.47300129731668,
        "Longitude(deg)": -43.62416790042623,
        "Mean Anomaly(deg)": -249.28157592886566,
        "RAAN(deg)": 294.9896245984506,
        "Satellite Name": "Starlink Shell 1 1304",
        "Satellite Number": 1304,
        "Semi-Major Axis(m)": 6931778.249405717,
        "Time(s)": 200
    },
    {
        "Altitude(m)": 558771.7602702024,
        "Argument of Periapsis(deg)": 0.007320148069735974,
        "Eccentricity": 0.0,
        "Inclination(deg)": 53.0,
        "Latitude(deg)": 48.20286871360785,
        "Longitude(deg)": -42.816452022380766,
        "Mean Anomaly(deg)": -248.654744725309,
        "RAAN(deg)": 294.9891058283731,
        "Satellite Name": "Starlink Shell 1 1304",
        "Satellite Number": 1304,
        "Semi-Major Axis(m)": 6931778.249405717,
        "Time(s)": 210
    },
    {
        "Altitude(m)": 558708.6351464941,
        "Argument of Periapsis(deg)": 0.007668726549247212,
        "Eccentricity": 0.0,
        "Inclination(deg)": 53.0,
        "Latitude(deg)": 47.92652147889553,
        "Longitude(deg)": -42.01771100060701,
        "Mean Anomaly(deg)": -248.0279135217523,
        "RAAN(deg)": 294.9885870582956,
        "Satellite Name": "Starlink Shell 1 1304",
        "Satellite Number": 1304,
        "Semi-Major Axis(m)": 6931778.249405717,
        "Time(s)": 220
    },
    {
        "Altitude(m)": 558644.1653920246,
        "Argument of Periapsis(deg)": 0.00801730502875845,
        "Eccentricity": 0.0,
        "Inclination(deg)": 53.0,
        "Latitude(deg)": 47.644083678248144,
        "Longitude(deg)": -41.22796147793445,
        "Mean Anomaly(deg)": -247.40108231819553,
        "RAAN(deg)": 294.98806828821813,
        "Satellite Name": "Starlink Shell 1 1304",
        "Satellite Number": 1304,
        "Semi-Major Axis(m)": 6931778.249405717,
        "Time(s)": 230
    },
    {
        "Altitude(m)": 558578.390700919,
        "Argument of Periapsis(deg)": 0.008365883508269684,
        "Eccentricity": 0.0,
        "Inclination(deg)": 53.0,
        "Latitude(deg)": 47.35567885691307,
        "Longitude(deg)": -40.447208350492446,
        "Mean Anomaly(deg)": -246.77425111463882,
        "RAAN(deg)": 294.9875495181407,
        "Satellite Name": "Starlink Shell 1 1304",
        "Satellite Number": 1304,
        "Semi-Major Axis(m)": 6931778.249405717,
        "Time(s)": 240
    },
    {
        "Altitude(m)": 558511.3516330072,
        "Argument of Periapsis(deg)": 0.008714461987780921,
        "Eccentricity": 0.0,
        "Inclination(deg)": 53.0,
        "Latitude(deg)": 47.06142986728084,
        "Longitude(deg)": -39.67544633336903,
        "Mean Anomaly(deg)": -246.14741991108215,
        "RAAN(deg)": 294.9870307480632,
        "Satellite Name": "Starlink Shell 1 1304",
        "Satellite Number": 1304,
        "Semi-Major Axis(m)": 6931778.249405717,
        "Time(s)": 250
    },
    {
        "Altitude(m)": 558443.0895937241,
        "Argument of Periapsis(deg)": 0.009063040467292158,
        "Eccentricity": 0.0,
        "Inclination(deg)": 53.0,
        "Latitude(deg)": 46.761458726925376,
        "Longitude(deg)": -38.912660015466564,
        "Mean Anomaly(deg)": -245.52058870752543,
        "RAAN(deg)": 294.98651197798574,
        "Satellite Name": "Starlink Shell 1 1304",
        "Satellite Number": 1304,
        "Semi-Major Axis(m)": 6931778.249405717,
        "Time(s)": 260
    },
    {
        "Altitude(m)": 558373.6468135946,
        "Argument of Periapsis(deg)": 0.009411618946803396,
        "Eccentricity": 0.0,
        "Inclination(deg)": 53.0,
        "Latitude(deg)": 46.45588648753526,
        "Longitude(deg)": -38.15882391325946,
        "Mean Anomaly(deg)": -244.8937575039687,
        "RAAN(deg)": 294.9859932079082,
        "Satellite Name": "Starlink Shell 1 1304",
        "Satellite Number": 1304,
        "Semi-Major Axis(m)": 6931778.249405717,
        "Time(s)": 270
    },
    {
        "Altitude(m)": 558303.0663272738,
        "Argument of Periapsis(deg)": 0.009760197426314633,
        "Eccentricity": 0.0,
        "Inclination(deg)": 53.0,
        "Latitude(deg)": 46.14483311449716,
        "Longitude(deg)": -37.413904033449924,
        "Mean Anomaly(deg)": -244.26692630041197,
        "RAAN(deg)": 294.98547443783076,
        "Satellite Name": "Starlink Shell 1 1304",
        "Satellite Number": 1304,
        "Semi-Major Axis(m)": 6931778.249405717,
        "Time(s)": 280
    },
    {
        "Altitude(m)": 558231.3919521831,
        "Argument of Periapsis(deg)": 0.01010877590582587,
        "Eccentricity": 0.0,
        "Inclination(deg)": 53.0,
        "Latitude(deg)": 45.82841737685586,
        "Longitude(deg)": -36.67785791620782,
        "Mean Anomaly(deg)": -243.64009509685528,
        "RAAN(deg)": 294.98495566775335,
        "Satellite Name": "Starlink Shell 1 1304",
        "Satellite Number": 1304,
        "Semi-Major Axis(m)": 6931778.249405717,
        "Time(s)": 290
    },
    {
        "Altitude(m)": 558158.6682667248,
        "Argument of Periapsis(deg)": 0.010457354385337106,
        "Eccentricity": 0.0,
        "Inclination(deg)": 53.0,
        "Latitude(deg)": 45.50675674732952,
        "Longitude(deg)": -35.95063466957207,
        "Mean Anomaly(deg)": -243.01326389329859,
        "RAAN(deg)": 294.98443689767583,
        "Satellite Name": "Starlink Shell 1 1304",
        "Satellite Number": 1304,
        "Semi-Major Axis(m)": 6931778.249405717,
        "Time(s)": 300
    },
    {
        "Altitude(m)": 558084.9405880949,
        "Argument of Periapsis(deg)": 0.010805932864848343,
        "Eccentricity": 0.0,
        "Inclination(deg)": 53.0,
        "Latitude(deg)": 45.17996731202984,
        "Longitude(deg)": -35.23217650587848,
        "Mean Anomaly(deg)": -242.38643268974178,
        "RAAN(deg)": 294.9839181275984,
        "Satellite Name": "Starlink Shell 1 1304",
        "Satellite Number": 1304,
        "Semi-Major Axis(m)": 6931778.249405717,
        "Time(s)": 310
    },
    {
        "Altitude(m)": 558010.2549497226,
        "Argument of Periapsis(deg)": 0.01115451134435958,
        "Eccentricity": 0.0,
        "Inclination(deg)": 53.0,
        "Latitude(deg)": 44.84816368951467,
        "Longitude(deg)": -34.522418752726495,
        "Mean Anomaly(deg)": -241.75960148618518,
        "RAAN(deg)": 294.9833993575209,
        "Satellite Name": "Starlink Shell 1 1304",
        "Satellite Number": 1304,
        "Semi-Major Axis(m)": 6931778.249405717,
        "Time(s)": 320
    },
    {
        "Altitude(m)": 557934.6580783066,
        "Argument of Periapsis(deg)": 0.011503089823870818,
        "Eccentricity": 0.0,
        "Inclination(deg)": 53.0,
        "Latitude(deg)": 44.51145895877612,
        "Longitude(deg)": -33.8212898498675,
        "Mean Anomaly(deg)": -241.13277028262837,
        "RAAN(deg)": 294.98288058744345,
        "Satellite Name": "Starlink Shell 1 1304",
        "Satellite Number": 1304,
        "Semi-Major Axis(m)": 6931778.249405717,
        "Time(s)": 330
    },
    {
        "Altitude(m)": 557858.1973705076,
        "Argument of Periapsis(deg)": 0.011851668303382053,
        "Eccentricity": 0.0,
        "Inclination(deg)": 53.0,
        "Latitude(deg)": 44.169964595753086,
        "Longitude(deg)": -33.1287128436393,
        "Mean Anomaly(deg)": -240.50593907907177,
        "RAAN(deg)": 294.9823618173659,
        "Satellite Name": "Starlink Shell 1 1304",
        "Satellite Number": 1304,
        "Semi-Major Axis(m)": 6931778.249405717,
        "Time(s)": 340
    },
    {
        "Altitude(m)": 557780.920869234,
        "Argument of Periapsis(deg)": 0.012200246782893292,
        "Eccentricity": 0.0,
        "Inclination(deg)": 53.0,
        "Latitude(deg)": 43.82379041795061,
        "Longitude(deg)": -32.44460535217589,
        "Mean Anomaly(deg)": -239.879107875515,
        "RAAN(deg)": 294.98184304728846,
        "Satellite Name": "Starlink Shell 1 1304",
        "Satellite Number": 1304,
        "Semi-Major Axis(m)": 6931778.249405717,
        "Time(s)": 350
    },
    {
        "Altitude(m)": 557702.8772396528,
        "Argument of Periapsis(deg)": 0.012548825262404526,
        "Eccentricity": 0.0,
        "Inclination(deg)": 53.0,
        "Latitude(deg)": 43.47304453673991,
        "Longitude(deg)": -31.768879513452255,
        "Mean Anomaly(deg)": -239.25227667195819,
        "RAAN(deg)": 294.981324277211,
        "Satellite Name": "Starlink Shell 1 1304",
        "Satellite Number": 1304,
        "Semi-Major Axis(m)": 6931778.249405717,
        "Time(s)": 360
    },
    {
        "Altitude(m)": 557624.11574478,
        "Argument of Periapsis(deg)": 0.012897403741915765,
        "Eccentricity": 0.0,
        "Inclination(deg)": 53.0,
        "Latitude(deg)": 43.11783331690726,
        "Longitude(deg)": -31.101443428406967,
        "Mean Anomaly(deg)": -238.62544546840155,
        "RAAN(deg)": 294.98080550713354,
        "Satellite Name": "Starlink Shell 1 1304",
        "Satellite Number": 1304,
        "Semi-Major Axis(m)": 6931778.249405717,
        "Time(s)": 370
    }
]